COSMOS 2550             
1 48865U 21056A   25297.95078880  .00008305  00000+0  25787-3 0  9992
2 48865  67.1421  91.5671 0008471 269.8964  90.1220 15.33841281242645
CZ-2C R/B               
1 52794U 22058K   25299.26208839  .00025713  00000+0  51292-3 0  9998
2 52794  50.1913 285.0770 0051230   0.3911 359.7087 15.45217550189284
GSLV R/B                
1 54149U 22138AN  25299.49569286  .00004709  00000+0  41900-3 0  9991
2 54149  87.3853 211.2809 0019067 281.7497  78.1595 14.95733911163865
XRISM                   
1 57800U 23137A   25299.50418583  .00006566  00000+0  39273-3 0  9996
2 57800  31.0026  70.3478 0008203 129.1061 231.0307 15.09597148117482
ACS3                    
1 59588U 24077B   25299.47240071  .00018295  00000+0  16784-1 0  9998
2 59588  97.3468 265.5247 0026666  27.3164 332.9391 13.82670509 75603
