CCSDS_OMM_VERS = 2.0
CREATION_DATE  = 
ORIGINATOR     = 

OBJECT_NAME    = COSMOS 2550
OBJECT_ID      = 2021-056A
CENTER_NAME    = EARTH
REF_FRAME      = TEME
TIME_SYSTEM    = UTC
MEAN_ELEMENT_THEORY = SGP/SGP4

EPOCH          = 2025-10-24T22:49:08.152320
MEAN_MOTION    = 15.33841281
ECCENTRICITY   = .0008471
INCLINATION    = 67.1421
RA_OF_ASC_NODE = 91.5671
ARG_OF_PERICENTER = 269.8964
MEAN_ANOMALY   = 90.1220

EPHEMERIS_TYPE = 0
CLASSIFICATION_TYPE = U
NORAD_CAT_ID   = 48865
ELEMENT_SET_NO = 999
REV_AT_EPOCH   = 24264
BSTAR          = .25787E-3
MEAN_MOTION_DOT = .8305E-4
MEAN_MOTION_DDOT = 0

CCSDS_OMM_VERS = 2.0
CREATION_DATE  = 
ORIGINATOR     = 

OBJECT_NAME    = CZ-2C R/B
OBJECT_ID      = 2022-058K
CENTER_NAME    = EARTH
REF_FRAME      = TEME
TIME_SYSTEM    = UTC
MEAN_ELEMENT_THEORY = SGP/SGP4

EPOCH          = 2025-10-26T06:17:24.436896
MEAN_MOTION    = 15.45217550
ECCENTRICITY   = .005123
INCLINATION    = 50.1913
RA_OF_ASC_NODE = 285.0770
ARG_OF_PERICENTER = 0.3911
MEAN_ANOMALY   = 359.7087

EPHEMERIS_TYPE = 0
CLASSIFICATION_TYPE = U
NORAD_CAT_ID   = 52794
ELEMENT_SET_NO = 999
REV_AT_EPOCH   = 18928
BSTAR          = .51292E-3
MEAN_MOTION_DOT = .25713E-3
MEAN_MOTION_DDOT = 0

CCSDS_OMM_VERS = 2.0
CREATION_DATE  = 
ORIGINATOR     = 

OBJECT_NAME    = GSLV R/B
OBJECT_ID      = 2022-138AN
CENTER_NAME    = EARTH
REF_FRAME      = TEME
TIME_SYSTEM    = UTC
MEAN_ELEMENT_THEORY = SGP/SGP4

EPOCH          = 2025-10-26T11:53:47.863104
MEAN_MOTION    = 14.95733911
ECCENTRICITY   = .0019067
INCLINATION    = 87.3853
RA_OF_ASC_NODE = 211.2809
ARG_OF_PERICENTER = 281.7497
MEAN_ANOMALY   = 78.1595

EPHEMERIS_TYPE = 0
CLASSIFICATION_TYPE = U
NORAD_CAT_ID   = 54149
ELEMENT_SET_NO = 999
REV_AT_EPOCH   = 16386
BSTAR          = .419E-3
MEAN_MOTION_DOT = .4709E-4
MEAN_MOTION_DDOT = 0

CCSDS_OMM_VERS = 2.0
CREATION_DATE  = 
ORIGINATOR     = 

OBJECT_NAME    = XRISM
OBJECT_ID      = 2023-137A
CENTER_NAME    = EARTH
REF_FRAME      = TEME
TIME_SYSTEM    = UTC
MEAN_ELEMENT_THEORY = SGP/SGP4

EPOCH          = 2025-10-26T12:06:01.655712
MEAN_MOTION    = 15.09597148
ECCENTRICITY   = .0008203
INCLINATION    = 31.0026
RA_OF_ASC_NODE = 70.3478
ARG_OF_PERICENTER = 129.1061
MEAN_ANOMALY   = 231.0307

EPHEMERIS_TYPE = 0
CLASSIFICATION_TYPE = U
NORAD_CAT_ID   = 57800
ELEMENT_SET_NO = 999
REV_AT_EPOCH   = 11748
BSTAR          = .39273E-3
MEAN_MOTION_DOT = .6566E-4
MEAN_MOTION_DDOT = 0

CCSDS_OMM_VERS = 2.0
CREATION_DATE  = 
ORIGINATOR     = 

OBJECT_NAME    = ACS3
OBJECT_ID      = 2024-077B
CENTER_NAME    = EARTH
REF_FRAME      = TEME
TIME_SYSTEM    = UTC
MEAN_ELEMENT_THEORY = SGP/SGP4

EPOCH          = 2025-10-26T11:20:15.421344
MEAN_MOTION    = 13.82670509
ECCENTRICITY   = .0026666
INCLINATION    = 97.3468
RA_OF_ASC_NODE = 265.5247
ARG_OF_PERICENTER = 27.3164
MEAN_ANOMALY   = 332.9391

EPHEMERIS_TYPE = 0
CLASSIFICATION_TYPE = U
NORAD_CAT_ID   = 59588
ELEMENT_SET_NO = 999
REV_AT_EPOCH   = 7560
BSTAR          = .16784E-1
MEAN_MOTION_DOT = .18295E-3
MEAN_MOTION_DDOT = 0

